STARLINK-11107 [DTC]    
1 59708U 24088A   25114.24217783  .00003829  00000+0  36444-4 0  9994
2 59708  53.1557 100.7286 0001107 112.9871 247.1264 15.69713385 56082
STARLINK-11088 [DTC]    
1 59709U 24088B   25114.93282675  .00018780  00000+0  15935-3 0  9996
2 59709  53.1560  97.9403 0001333  87.4976 272.6195 15.69735407 56207
STARLINK-11092 [DTC]    
1 59710U 24088C   25114.92791965  .00000387  00000+0  80497-5 0  9995
2 59710  53.1569  97.9086 0001080  89.6959 270.4182 15.69721449 56202
STARLINK-11082 [DTC]    
1 59711U 24088D   25114.22265965  .00003182  00000+0  31113-4 0  9991
2 59711  53.1577 101.3292 0001387  94.6938 265.4239 15.69710516 56091
STARLINK-11108 [DTC]    
1 59712U 24088E   25114.21775411 -.00002392  00000+0 -14886-4 0  9995
2 59712  53.1587 101.2922 0001343 105.6344 254.4822 15.69711230 55985
STARLINK-11100 [DTC]    
1 59713U 24088F   25114.97686934  .00004371  00000+0  40937-4 0  9993
2 59713  53.1592  97.4925 0001321 126.0683 234.0458 15.69700499 56211
STARLINK-11094 [DTC]    
1 59714U 24088G   25114.97196575 -.00001460  00000+0 -71868-5 0  9997
2 59714  53.1581  97.4619 0001142  79.5959 280.5187 15.69719326 56213
STARLINK-11101 [DTC]    
1 59715U 24088H   25114.96215507  .00006853  00000+0  61321-4 0  9995
2 59715  53.1557  97.3928 0000961 104.1251 255.9874 15.69731351 56218
STARLINK-11099 [DTC]    
1 59716U 24088J   25114.96705417  .00002127  00000+0  22408-4 0  9993
2 59716  53.1586  97.4288 0001069  57.4867 302.6254 15.69716525 56212
STARLINK-11084 [DTC]    
1 59717U 24088K   25114.25689096  .00003462  00000+0  33420-4 0  9999
2 59717  53.1574 100.8140 0001036 104.8794 255.2338 15.69708333 56108
STARLINK-11103 [DTC]    
1 59718U 24088L   25114.25195723  .00006826  00000+0  61071-4 0  9999
2 59718  53.1584 100.7827 0001238 114.4583 245.6564 15.69743650 56103
STARLINK-11096 [DTC]    
1 59719U 24088M   25114.93773125  .00000419  00000+0  83153-5 0  9991
2 59719  53.1577  97.9672 0001333  61.0821 299.0330 15.69720097 56204
STARLINK-11095 [DTC]    
1 59720U 24088N   25114.94743831 -.00000273  00000+0  25986-5 0  9994
2 59720  53.1573  97.2933 0000906  88.9047 271.2075 15.69725044 56214
STARLINK-31834          
1 59721U 24088P   25114.45812096  .00004439  00000+0  16205-3 0  9990
2 59721  53.1599 182.8975 0001823 118.8929 241.2254 15.30175093 54980
STARLINK-31843          
1 59722U 24088Q   25114.59930510  .00004677  00000+0  17002-3 0  9998
2 59722  53.1598 182.3586 0001345 101.3790 258.7362 15.30182875 54827
STARLINK-31766          
1 59723U 24088R   25114.57820927  .00026123  00000+0  89179-3 0  9991
2 59723  53.1594 182.2317 0000802  77.4909 282.6182 15.30171988 54826
STARLINK-31836          
1 59724U 24088S   25114.58242446  .00005511  00000+0  19826-3 0  9997
2 59724  53.1599 182.2566 0001400  76.8658 283.2498 15.30163900 54829
STARLINK-31820          
1 59725U 24088T   25114.46129856  .00016432  00000+0  56720-3 0  9992
2 59725  53.1604 182.9159 0001845 101.9094 258.2114 15.30112681 54804
STARLINK-31642          
1 59726U 24088U   25114.59614060  .00007308  00000+0  25864-3 0  9990
2 59726  53.1597 182.3378 0001036 112.8704 247.2406 15.30198587 54827
STARLINK-31827          
1 59727U 24088V   25114.60247151  .00003790  00000+0  14004-3 0  9991
2 59727  53.1588 182.3777 0001462  79.6109 280.5056 15.30199322 54945
SHIYAN-23 (SY-23)       
1 59728U 24089A   25114.91122471  .00001089  00000+0  14188-3 0  9996
2 59728  97.7698 121.1714 0006169 231.0178 129.0486 14.82535250 51720
STARLINK-31472          
1 59730U 24090A   25114.62525957  .00002162  00000+0  88082-4 0  9993
2 59730  43.0008 185.3828 0000392 319.4130  40.6692 15.27571893 54645
STARLINK-31817          
1 59731U 24090B   25114.67265583  .00040039  00000+0  14546-2 0  9992
2 59731  42.9990 184.8738 0001044 288.2614  71.8124 15.27625759 54651
STARLINK-31841          
1 59732U 24090C   25114.56148789 -.00000379  00000+0 -18113-5 0  9991
2 59732  42.9992 151.6486 0000881 289.4069  70.6692 15.40700272 55029
STARLINK-31833          
1 59733U 24090D   25114.50862031  .00002529  00000+0  10142-3 0  9998
2 59733  43.0029 186.2246 0001204 249.2001 110.8721 15.27570107 54623
STARLINK-31849          
1 59734U 24090E   25114.91668981 -.01091914  00000+0 -40683-1 0  9992
2 59734  43.0008 176.8753 0001462 277.8001 223.7096 15.29669342  5955
STARLINK-31661          
1 59735U 24090F   25114.91668981 -.01092293  00000+0 -37172-1 0  9993
2 59735  43.0008 176.8594 0001529 276.0746 232.0960 15.32555192  5910
STARLINK-31707          
1 59736U 24090G   25114.55601097  .00002761  00000+0  10985-3 0  9992
2 59736  42.9974 185.7211 0001374 240.7745 119.2969 15.27571805 54632
STARLINK-31821          
1 59737U 24090H   25114.50219851  .00007188  00000+0  27055-3 0  9995
2 59737  43.0056 186.1730 0001607 303.8366  56.2332 15.27571358 54576
STARLINK-31819          
1 59738U 24090J   25114.62911283 -.00004305  00000+0 -14694-3 0  9992
2 59738  43.0021 185.4050 0000526 287.7513  72.3281 15.27595537 54644
STARLINK-31726          
1 59739U 24090K   25114.53802235 -.00000722  00000+0 -16701-4 0  9990
2 59739  43.0002 185.5823 0001493 256.7691 103.2994 15.27580510 54639
STARLINK-31759          
1 59740U 24090L   25114.58556655  .00004920  00000+0  18819-3 0  9992
2 59740  43.0091 185.9359 0001256 250.8915 109.1800 15.27583995 54639
STARLINK-31818          
1 59741U 24090M   25114.57786304  .00013803  00000+0  51102-3 0  9990
2 59741  43.0090 185.8746 0002667 239.4536 120.6052 15.27523768 54636
STARLINK-31816          
1 59742U 24090N   25114.52660776 -.00000832  00000+0 -20734-4 0  9998
2 59742  42.9990 186.3424 0001034 254.4863 105.5875 15.27575173 54609
STARLINK-31809          
1 59743U 24090P   25114.91668981 -.01092123  00000+0 -37077-1 0  9998
2 59743  43.0007 176.8247 0001392 276.0124 245.5901 15.32631522  5917
STARLINK-31779          
1 59744U 24090Q   25114.67649401 -.00003246  00000+0 -10837-3 0  9992
2 59744  42.9985 184.9039 0001974 259.2230 100.8399 15.27605529 54658
STARLINK-31805          
1 59745U 24090R   25114.53417165 -.00001847  00000+0 -57588-4 0  9998
2 59745  43.0010 185.5587 0001382  27.0628 333.0296 15.27598214 54636
STARLINK-31681          
1 59746U 24090S   25114.91668981 -.01091473  00000+0 -38817-1 0  9991
2 59746  43.0008 176.8446 0001522 275.7449 237.6490 15.31156681  5915
STARLINK-31636          
1 59747U 24090T   25114.61366995  .00000814  00000+0  39068-4 0  9997
2 59747  43.0025 185.2871 0001280 281.7258  78.3450 15.27621290 54645
STARLINK-31640          
1 59748U 24090U   25112.60341215  .00000227  00000+0  17758-4 0  9993
2 59748  43.0021 196.8606 0000593 269.7285  90.3499 15.27579960 54337
STARLINK-31677          
1 59749U 24090V   25114.58173225  .00004682  00000+0  17975-3 0  9996
2 59749  43.0100 185.9021 0002783 236.0501 124.0086 15.27548929 54627
STARLINK-31783          
1 59750U 24090W   25114.58941560 -.00002047  00000+0 -64816-4 0  9995
2 59750  43.0062 185.9698 0001377 269.9848  90.0846 15.27604403 54629
STARLINK-31808          
1 59751U 24090X   25114.59570113  .00003235  00000+0  12706-3 0  9997
2 59751  43.0025 185.1537 0000820 244.8662 115.2105 15.27574338 54633
STARLINK-31822          
1 59752U 24090Y   25114.68293713  .00031138  00000+0  11347-2 0  9998
2 59752  42.9967 184.9498 0001070 281.6149  78.4583 15.27625427 54644
STARLINK-11125 [DTC]    
1 59753U 24091A   25114.91668981  .00141679  00000+0  94306-3 0  9998
2 59753  53.1527 337.6927 0002375 246.8624 223.6722 15.74490604  5975
STARLINK-11118 [DTC]    
1 59754U 24091B   25114.60958721 -.00000034  00000+0  45783-5 0  9996
2 59754  53.1585 339.5473 0000926  60.0023 300.1087 15.69710263 55392
STARLINK-11132 [DTC]    
1 59755U 24091C   25113.96308714  .00003122  00000+0  30613-4 0  9991
2 59755  53.1568 342.6198 0000949  63.9688 296.1428 15.69709162 55295
STARLINK-11131 [DTC]    
1 59756U 24091D   25114.21289774  .00075925  00000+0  62916-3 0  9995
2 59756  53.1590 341.3316 0000885  45.8434 314.2656 15.69581333 55334
STARLINK-11114 [DTC]    
1 59757U 24091E   25114.33335648  .00013495  00000+0  11628-3 0  9999
2 59757  53.1565 340.7059 0000955 101.6131 247.5468 15.69663365  5977
STARLINK-11105 [DTC]    
1 59758U 24091F   25114.01204409  .00001826  00000+0  19940-4 0  9996
2 59758  53.1584 342.2285 0001024  65.1468 294.9657 15.69695275 55305
STARLINK-11097 [DTC]    
1 59759U 24091G   25114.89847561  .00005217  00000+0  47842-4 0  9995
2 59759  53.1557 337.7796 0000170 144.5099 215.5931 15.69731937 55440
STARLINK-11098 [DTC]    
1 59760U 24091H   25114.63892178  .00000078  00000+0  55035-5 0  9997
2 59760  53.1591 339.0048 0001488  97.6695 262.4492 15.69710044 55403
STARLINK-11117 [DTC]    
1 59761U 24091J   25114.63401374  .00000049  00000+0  52572-5 0  9993
2 59761  53.1607 338.9730 0000535  79.3969 280.7109 15.69709638 55406
STARLINK-11110 [DTC]    
1 59762U 24091K   25114.62910226  .00003201  00000+0  31242-4 0  9997
2 59762  53.1592 338.9388 0000590  35.2714 324.8343 15.69729769 55406
STARLINK-11104 [DTC]    
1 59763U 24091L   25113.92383452  .00000205  00000+0  65415-5 0  9996
2 59763  53.1576 342.3560 0000303  56.1133 303.9914 15.69712507 55290
STARLINK-11111 [DTC]    
1 59764U 24091M   25113.65935066  .00002986  00000+0  29500-4 0  9993
2 59764  53.1579 343.5484 0000862  88.9748 271.1369 15.69702476 55257
STARLINK-11106 [DTC]    
1 59765U 24091N   25114.61929796 -.00000046  00000+0  44747-5 0  9991
2 59765  53.1565 338.8736 0001008  91.1970 268.9163 15.69713871 55400
STARLINK-31739          
1 59766U 24091P   25114.09060144 -.00006050  00000+0 -19253-3 0  9991
2 59766  53.1600  68.4735 0001352  52.0635 308.0488 15.30160107 54111
STARLINK-31828          
1 59767U 24091Q   25114.88976810  .00003293  00000+0  12323-3 0  9990
2 59767  53.1598  67.7542 0001545 101.4268 258.6906 15.30206147 54199
